{"type": "FeatureCollection", "features": [ {"type": "Feature", "properties": {"norad_id": 40534, "name": "GPS BIIF-9  (PRN 26)", "group": "gps-ops", "lat": 50.27348475172639, "lon": -32.80305003047905, "alt_km": 20063.61238374729, "timestamp": "2025-12-22T16:55:17.721707+00:00", "meta": {"OBJECT_NAME": "GPS BIIF-9  (PRN 26)", "OBJECT_ID": "2015-013A", "EPOCH": "2025-12-21T01:33:43.050240", "MEAN_MOTION": 2.00562033, "ECCENTRICITY": 0.01073869, "INCLINATION": 53.1966, "RA_OF_ASC_NODE": 211.5454, "ARG_OF_PERICENTER": 38.6862, "MEAN_ANOMALY": 322.1684, "EPHEMERIS_TYPE": 0, "CLASSIFICATION_TYPE": "U", "NORAD_CAT_ID": 40534, "ELEMENT_SET_NO": 999, "REV_AT_EPOCH": 7825, "BSTAR": 0, "MEAN_MOTION_DOT": 7.9e-07, "MEAN_MOTION_DDOT": 0}, "tle": {"line1": "1 40534U 15013A   25355.06508160  .00000079  00000+0  00000+0 0  9996", "line2": "2 40534  53.1966 211.5454 0107386  38.6862 322.1684  2.00562033 78257"}}, "geometry": {"type": "Point", "coordinates": [-32.80305003047905, 50.27348475172639]}}, {"type": "Feature", "properties": {"norad_id": 40730, "name": "GPS BIIF-10 (PRN 08)", "group": "gps-ops", "lat": -10.102210505699052, "lon": -93.04052525148525, "alt_km": 19953.584378671636, "timestamp": "2025-12-22T16:55:17.721718+00:00", "meta": {"OBJECT_NAME": "GPS BIIF-10 (PRN 08)", "OBJECT_ID": "2015-033A", "EPOCH": "2025-12-21T17:23:51.616608", "MEAN_MOTION": 2.00565211, "ECCENTRICITY": 0.01114778, "INCLINATION": 54.1229, "RA_OF_ASC_NODE": 274.4032, "ARG_OF_PERICENTER": 27.0282, "MEAN_ANOMALY": 333.5929, "EPHEMERIS_TYPE": 0, "CLASSIFICATION_TYPE": "U", "NORAD_CAT_ID": 40730, "ELEMENT_SET_NO": 999, "REV_AT_EPOCH": 7643, "BSTAR": 0, "MEAN_MOTION_DOT": -1.3e-07, "MEAN_MOTION_DDOT": 0}, "tle": {"line1": "1 40730U 15033A   25355.72490297 -.00000013  00000+0  00000+0 0  9999", "line2": "2 40730  54.1229 274.4032 0111477  27.0282 333.5929  2.00565211 76439"}}, "geometry": {"type": "Point", "coordinates": [-93.04052525148525, -10.102210505699052]}}, {"type": "Feature", "properties": {"norad_id": 41019, "name": "GPS BIIF-11 (PRN 10)", "group": "gps-ops", "lat": -43.21989298682331, "lon": -0.25026085632267636, "alt_km": 20106.766502355367, "timestamp": "2025-12-22T16:55:17.721729+00:00", "meta": {"OBJECT_NAME": "GPS BIIF-11 (PRN 10)", "OBJECT_ID": "2015-062A", "EPOCH": "2025-12-20T06:55:31.863072", "MEAN_MOTION": 2.00567218, "ECCENTRICITY": 0.0111019, "INCLINATION": 56.8376, "RA_OF_ASC_NODE": 37.7103, "ARG_OF_PERICENTER": 230.1421, "MEAN_ANOMALY": 128.9419, "EPHEMERIS_TYPE": 0, "CLASSIFICATION_TYPE": "U", "NORAD_CAT_ID": 41019, "ELEMENT_SET_NO": 999, "REV_AT_EPOCH": 7424, "BSTAR": 0, "MEAN_MOTION_DOT": -5.7e-07, "MEAN_MOTION_DDOT": 0}, "tle": {"line1": "1 41019U 15062A   25354.28856323 -.00000057  00000+0  00000+0 0  9996", "line2": "2 41019  56.8376  37.7103 0111019 230.1421 128.9419  2.00567218 74241"}}, "geometry": {"type": "Point", "coordinates": [-0.25026085632267636, -43.21989298682331]}}, {"type": "Feature", "properties": {"norad_id": 41328, "name": "GPS BIIF-12 (PRN 32)", "group": "gps-ops", "lat": -47.844692756329444, "lon": -33.98008145107014, "alt_km": 19942.12650144695, "timestamp": "2025-12-22T16:55:17.721741+00:00", "meta": {"OBJECT_NAME": "GPS BIIF-12 (PRN 32)", "OBJECT_ID": "2016-007A", "EPOCH": "2025-12-21T08:50:32.363232", "MEAN_MOTION": 2.00560305, "ECCENTRICITY": 0.00925842, "INCLINATION": 55.4109, "RA_OF_ASC_NODE": 96.5146, "ARG_OF_PERICENTER": 243.788, "MEAN_ANOMALY": 115.2562, "EPHEMERIS_TYPE": 0, "CLASSIFICATION_TYPE": "U", "NORAD_CAT_ID": 41328, "ELEMENT_SET_NO": 999, "REV_AT_EPOCH": 7227, "BSTAR": 0, "MEAN_MOTION_DOT": -8e-08, "MEAN_MOTION_DDOT": 0}, "tle": {"line1": "1 41328U 16007A   25355.36843013 -.00000008  00000+0  00000+0 0  9997", "line2": "2 41328  55.4109  96.5146 0092584 243.7880 115.2562  2.00560305 72276"}}, "geometry": {"type": "Point", "coordinates": [-33.98008145107014, -47.844692756329444]}}, {"type": "Feature", "properties": {"norad_id": 43873, "name": "GPS BIII-1  (PRN 04)", "group": "gps-ops", "lat": 33.34703090403601, "lon": -107.63106143898518, "alt_km": 20124.500936513916, "timestamp": "2025-12-22T16:55:17.721752+00:00", "meta": {"OBJECT_NAME": "GPS BIII-1  (PRN 04)", "OBJECT_ID": "2018-109A", "EPOCH": "2025-12-21T18:06:33.031872", "MEAN_MOTION": 2.00553985, "ECCENTRICITY": 0.00375944, "INCLINATION": 55.5715, "RA_OF_ASC_NODE": 99.1915, "ARG_OF_PERICENTER": 195.3805, "MEAN_ANOMALY": 336.8667, "EPHEMERIS_TYPE": 0, "CLASSIFICATION_TYPE": "U", "NORAD_CAT_ID": 43873, "ELEMENT_SET_NO": 999, "REV_AT_EPOCH": 5151, "BSTAR": 0, "MEAN_MOTION_DOT": -1e-08, "MEAN_MOTION_DDOT": 0}, "tle": {"line1": "1 43873U 18109A   25355.75454898 -.00000001  00000+0  00000+0 0  9994", "line2": "2 43873  55.5715  99.1915 0037594 195.3805 336.8667  2.00553985 51516"}}, "geometry": {"type": "Point", "coordinates": [-107.63106143898518, 33.34703090403601]}}, {"type": "Feature", "properties": {"norad_id": 44506, "name": "GPS BIII-2  (PRN 18)", "group": "gps-ops", "lat": 28.847008503101108, "lon": 0.20753033668910206, "alt_km": 20324.551565505382, "timestamp": "2025-12-22T16:55:17.721787+00:00", "meta": {"OBJECT_NAME": "GPS BIII-2  (PRN 18)", "OBJECT_ID": "2019-056A", "EPOCH": "2025-12-22T06:17:50.154720", "MEAN_MOTION": 2.00566614, "ECCENTRICITY": 0.00577398, "INCLINATION": 55.7181, "RA_OF_ASC_NODE": 338.1752, "ARG_OF_PERICENTER": 198.5765, "MEAN_ANOMALY": 237.7097, "EPHEMERIS_TYPE": 0, "CLASSIFICATION_TYPE": "U", "NORAD_CAT_ID": 44506, "ELEMENT_SET_NO": 999, "REV_AT_EPOCH": 4652, "BSTAR": 0, "MEAN_MOTION_DOT": -6.8e-07, "MEAN_MOTION_DDOT": 0}, "tle": {"line1": "1 44506U 19056A   25356.26238605 -.00000068  00000+0  00000+0 0  9996", "line2": "2 44506  55.7181 338.1752 0057739 198.5765 237.7097  2.00566614 46521"}}, "geometry": {"type": "Point", "coordinates": [0.20753033668910206, 28.847008503101108]}}, {"type": "Feature", "properties": {"norad_id": 45854, "name": "GPS BIII-3  (PRN 23)", "group": "gps-ops", "lat": -16.38702891485774, "lon": 24.613577123011723, "alt_km": 20300.89675041797, "timestamp": "2025-12-22T16:55:17.721815+00:00", "meta": {"OBJECT_NAME": "GPS BIII-3  (PRN 23)", "OBJECT_ID": "2020-041A", "EPOCH": "2025-12-20T05:44:36.632832", "MEAN_MOTION": 2.00561934, "ECCENTRICITY": 0.00606224, "INCLINATION": 56.5518, "RA_OF_ASC_NODE": 35.8938, "ARG_OF_PERICENTER": 203.675, "MEAN_ANOMALY": 155.7759, "EPHEMERIS_TYPE": 0, "CLASSIFICATION_TYPE": "U", "NORAD_CAT_ID": 45854, "ELEMENT_SET_NO": 999, "REV_AT_EPOCH": 4044, "BSTAR": 0, "MEAN_MOTION_DOT": -5.8e-07, "MEAN_MOTION_DDOT": 0}, "tle": {"line1": "1 45854U 20041A   25354.23931288 -.00000058  00000+0  00000+0 0  9990", "line2": "2 45854  56.5518  35.8938 0060622 203.6750 155.7759  2.00561934 40444"}}, "geometry": {"type": "Point", "coordinates": [24.613577123011723, -16.38702891485774]}}, {"type": "Feature", "properties": {"norad_id": 46826, "name": "GPS BIII-4  (PRN 14)", "group": "gps-ops", "lat": -37.15632940706473, "lon": -175.46079450353102, "alt_km": 20238.9299307924, "timestamp": "2025-12-22T16:55:17.721837+00:00", "meta": {"OBJECT_NAME": "GPS BIII-4  (PRN 14)", "OBJECT_ID": "2020-078A", "EPOCH": "2025-12-16T01:06:13.902336", "MEAN_MOTION": 2.00566891, "ECCENTRICITY": 0.0064755, "INCLINATION": 54.0145, "RA_OF_ASC_NODE": 218.2068, "ARG_OF_PERICENTER": 203.3828, "MEAN_ANOMALY": 339.3936, "EPHEMERIS_TYPE": 0, "CLASSIFICATION_TYPE": "U", "NORAD_CAT_ID": 46826, "ELEMENT_SET_NO": 999, "REV_AT_EPOCH": 3783, "BSTAR": 0, "MEAN_MOTION_DOT": 6.7e-07, "MEAN_MOTION_DDOT": 0}, "tle": {"line1": "1 46826U 20078A   25350.04599424  .00000067  00000+0  00000+0 0  9996", "line2": "2 46826  54.0145 218.2068 0064755 203.3828 339.3936  2.00566891 37831"}}, "geometry": {"type": "Point", "coordinates": [-175.46079450353102, -37.15632940706473]}}, {"type": "Feature", "properties": {"norad_id": 48859, "name": "GPS BIII-5  (PRN 11)", "group": "gps-ops", "lat": 35.063073098227086, "lon": 130.39285101301783, "alt_km": 20188.045560743936, "timestamp": "2025-12-22T16:55:17.721854+00:00", "meta": {"OBJECT_NAME": "GPS BIII-5  (PRN 11)", "OBJECT_ID": "2021-054A", "EPOCH": "2025-12-08T04:14:32.423424", "MEAN_MOTION": 2.00553627, "ECCENTRICITY": 0.0024678, "INCLINATION": 55.2581, "RA_OF_ASC_NODE": 340.1367, "ARG_OF_PERICENTER": 233.3993, "MEAN_ANOMALY": 212.8594, "EPHEMERIS_TYPE": 0, "CLASSIFICATION_TYPE": "U", "NORAD_CAT_ID": 48859, "ELEMENT_SET_NO": 999, "REV_AT_EPOCH": 3292, "BSTAR": 0, "MEAN_MOTION_DOT": -8.6e-07, "MEAN_MOTION_DDOT": 0}, "tle": {"line1": "1 48859U 21054A   25342.17676416 -.00000086  00000+0  00000+0 0  9993", "line2": "2 48859  55.2581 340.1367 0024678 233.3993 212.8594  2.00553627 32922"}}, "geometry": {"type": "Point", "coordinates": [130.39285101301783, 35.063073098227086]}}, {"type": "Feature", "properties": {"norad_id": 55268, "name": "GPS BIII-6  (PRN 28)", "group": "gps-ops", "lat": 1.2722520313821992, "lon": -25.444254107617116, "alt_km": 20192.958953082896, "timestamp": "2025-12-22T16:55:17.721867+00:00", "meta": {"OBJECT_NAME": "GPS BIII-6  (PRN 28)", "OBJECT_ID": "2023-009A", "EPOCH": "2025-12-21T11:01:56.819424", "MEAN_MOTION": 2.00555004, "ECCENTRICITY": 0.00037189, "INCLINATION": 55.1065, "RA_OF_ASC_NODE": 155.503, "ARG_OF_PERICENTER": 355.6529, "MEAN_ANOMALY": 3.5346, "EPHEMERIS_TYPE": 0, "CLASSIFICATION_TYPE": "U", "NORAD_CAT_ID": 55268, "ELEMENT_SET_NO": 999, "REV_AT_EPOCH": 2167, "BSTAR": 0, "MEAN_MOTION_DOT": 6.8e-07, "MEAN_MOTION_DDOT": 0}, "tle": {"line1": "1 55268U 23009A   25355.45968541  .00000068  00000+0  00000+0 0  9994", "line2": "2 55268  55.1065 155.5030 0003718 355.6529   3.5346  2.00555004 21671"}}, "geometry": {"type": "Point", "coordinates": [-25.444254107617116, 1.2722520313821992]}}]}